{
  "norad_id": 66074,
  "name": "STARLINK-35321",
  "history": [
    {
      "epoch": "2026-03-28T14:28:27.072768",
      "apogee_km": 475.9230646254209,
      "perigee_km": 474.4619347760845,
      "latitude_deg": -42.840645927590806,
      "longitude_deg": 125.2967475198675,
      "semi_major_axis_km": 6853.329499700752,
      "eccentricity": 0.0001066,
      "inclination_deg": 53.159,
      "raan_deg": 157.6707,
      "arg_perigee_deg": 93.915,
      "mean_anomaly_deg": 266.1972,
      "mean_motion_rev_day": 15.30207559
    }
  ]
}